CCSDS_OMM_VERS = 2.0
CREATION_DATE  = 
ORIGINATOR     = 

OBJECT_NAME    = KUIPER-00135
OBJECT_ID      = 2025-228Q
CENTER_NAME    = EARTH
REF_FRAME      = TEME
TIME_SYSTEM    = UTC
MEAN_ELEMENT_THEORY = SGP/SGP4

EPOCH          = 2025-10-27T07:14:35.238336
MEAN_MOTION    = 15.34255560
ECCENTRICITY   = .00049689
INCLINATION    = 51.8814
RA_OF_ASC_NODE = 244.3110
ARG_OF_PERICENTER = 184.9970
MEAN_ANOMALY   = 175.0966

EPHEMERIS_TYPE = 0
CLASSIFICATION_TYPE = U
NORAD_CAT_ID   = 65961
ELEMENT_SET_NO = 999
REV_AT_EPOCH   = 328
BSTAR          = .78953847E-3
MEAN_MOTION_DOT = .26302E-3
MEAN_MOTION_DDOT = 0

CCSDS_OMM_VERS = 2.0
CREATION_DATE  = 
ORIGINATOR     = 

OBJECT_NAME    = KUIPER-00136
OBJECT_ID      = 2025-228R
CENTER_NAME    = EARTH
REF_FRAME      = TEME
TIME_SYSTEM    = UTC
MEAN_ELEMENT_THEORY = SGP/SGP4

EPOCH          = 2025-10-27T07:09:27.149760
MEAN_MOTION    = 15.34694108
ECCENTRICITY   = .00056558
INCLINATION    = 51.8804
RA_OF_ASC_NODE = 244.2873
ARG_OF_PERICENTER = 181.0558
MEAN_ANOMALY   = 179.0417

EPHEMERIS_TYPE = 0
CLASSIFICATION_TYPE = U
NORAD_CAT_ID   = 65962
ELEMENT_SET_NO = 999
REV_AT_EPOCH   = 328
BSTAR          = .88651819E-3
MEAN_MOTION_DOT = .30016E-3
MEAN_MOTION_DDOT = 0

CCSDS_OMM_VERS = 2.0
CREATION_DATE  = 
ORIGINATOR     = 

OBJECT_NAME    = KUIPER-00137
OBJECT_ID      = 2025-228S
CENTER_NAME    = EARTH
REF_FRAME      = TEME
TIME_SYSTEM    = UTC
MEAN_ELEMENT_THEORY = SGP/SGP4

EPOCH          = 2025-10-27T05:40:14.344896
MEAN_MOTION    = 15.34349352
ECCENTRICITY   = .0005218
INCLINATION    = 51.8813
RA_OF_ASC_NODE = 244.6219
ARG_OF_PERICENTER = 193.6974
MEAN_ANOMALY   = 166.3871

EPHEMERIS_TYPE = 0
CLASSIFICATION_TYPE = U
NORAD_CAT_ID   = 65963
ELEMENT_SET_NO = 999
REV_AT_EPOCH   = 327
BSTAR          = .89613514E-3
MEAN_MOTION_DOT = .3001E-3
MEAN_MOTION_DDOT = 0

CCSDS_OMM_VERS = 2.0
CREATION_DATE  = 
ORIGINATOR     = 

OBJECT_NAME    = KUIPER-00138
OBJECT_ID      = 2025-228T
CENTER_NAME    = EARTH
REF_FRAME      = TEME
TIME_SYSTEM    = UTC
MEAN_ELEMENT_THEORY = SGP/SGP4

EPOCH          = 2025-10-27T05:42:20.218464
MEAN_MOTION    = 15.34139829
ECCENTRICITY   = .00058206
INCLINATION    = 51.8801
RA_OF_ASC_NODE = 244.6258
ARG_OF_PERICENTER = 205.1932
MEAN_ANOMALY   = 154.8770

EPHEMERIS_TYPE = 0
CLASSIFICATION_TYPE = U
NORAD_CAT_ID   = 65964
ELEMENT_SET_NO = 999
REV_AT_EPOCH   = 327
BSTAR          = .5666446E-3
MEAN_MOTION_DOT = .18683E-3
MEAN_MOTION_DDOT = 0

CCSDS_OMM_VERS = 2.0
CREATION_DATE  = 
ORIGINATOR     = 

OBJECT_NAME    = KUIPER-00140
OBJECT_ID      = 2025-228U
CENTER_NAME    = EARTH
REF_FRAME      = TEME
TIME_SYSTEM    = UTC
MEAN_ELEMENT_THEORY = SGP/SGP4

EPOCH          = 2025-10-27T07:17:08.644992
MEAN_MOTION    = 15.34117071
ECCENTRICITY   = .0005398
INCLINATION    = 51.8807
RA_OF_ASC_NODE = 244.3193
ARG_OF_PERICENTER = 206.1096
MEAN_ANOMALY   = 153.9618

EPHEMERIS_TYPE = 0
CLASSIFICATION_TYPE = U
NORAD_CAT_ID   = 65965
ELEMENT_SET_NO = 999
REV_AT_EPOCH   = 328
BSTAR          = .87824581E-3
MEAN_MOTION_DOT = .29183E-3
MEAN_MOTION_DDOT = 0

CCSDS_OMM_VERS = 2.0
CREATION_DATE  = 
ORIGINATOR     = 

OBJECT_NAME    = KUIPER-00141
OBJECT_ID      = 2025-228V
CENTER_NAME    = EARTH
REF_FRAME      = TEME
TIME_SYSTEM    = UTC
MEAN_ELEMENT_THEORY = SGP/SGP4

EPOCH          = 2025-10-27T05:38:01.100544
MEAN_MOTION    = 15.34516838
ECCENTRICITY   = .00056589
INCLINATION    = 51.8802
RA_OF_ASC_NODE = 244.6053
ARG_OF_PERICENTER = 184.8965
MEAN_ANOMALY   = 175.1966

EPHEMERIS_TYPE = 0
CLASSIFICATION_TYPE = U
NORAD_CAT_ID   = 65966
ELEMENT_SET_NO = 999
REV_AT_EPOCH   = 327
BSTAR          = .80985751E-3
MEAN_MOTION_DOT = .27222E-3
MEAN_MOTION_DDOT = 0

CCSDS_OMM_VERS = 2.0
CREATION_DATE  = 
ORIGINATOR     = 

OBJECT_NAME    = KUIPER-00146
OBJECT_ID      = 2025-228W
CENTER_NAME    = EARTH
REF_FRAME      = TEME
TIME_SYSTEM    = UTC
MEAN_ELEMENT_THEORY = SGP/SGP4

EPOCH          = 2025-10-27T05:38:26.784672
MEAN_MOTION    = 15.34483598
ECCENTRICITY   = .0005644
INCLINATION    = 51.8812
RA_OF_ASC_NODE = 244.6140
ARG_OF_PERICENTER = 186.6253
MEAN_ANOMALY   = 173.4659

EPHEMERIS_TYPE = 0
CLASSIFICATION_TYPE = U
NORAD_CAT_ID   = 65967
ELEMENT_SET_NO = 999
REV_AT_EPOCH   = 327
BSTAR          = .85321066E-3
MEAN_MOTION_DOT = .28674E-3
MEAN_MOTION_DDOT = 0

CCSDS_OMM_VERS = 2.0
CREATION_DATE  = 
ORIGINATOR     = 

OBJECT_NAME    = KUIPER-00149
OBJECT_ID      = 2025-228X
CENTER_NAME    = EARTH
REF_FRAME      = TEME
TIME_SYSTEM    = UTC
MEAN_ELEMENT_THEORY = SGP/SGP4

EPOCH          = 2025-10-27T05:36:08.287200
MEAN_MOTION    = 15.34657982
ECCENTRICITY   = .00055798
INCLINATION    = 51.8804
RA_OF_ASC_NODE = 244.5982
ARG_OF_PERICENTER = 182.8780
MEAN_ANOMALY   = 177.2175

EPHEMERIS_TYPE = 0
CLASSIFICATION_TYPE = U
NORAD_CAT_ID   = 65968
ELEMENT_SET_NO = 999
REV_AT_EPOCH   = 327
BSTAR          = .77708703E-3
MEAN_MOTION_DOT = .2622E-3
MEAN_MOTION_DDOT = 0

CCSDS_OMM_VERS = 2.0
CREATION_DATE  = 
ORIGINATOR     = 

OBJECT_NAME    = KUIPER-00154
OBJECT_ID      = 2025-228Y
CENTER_NAME    = EARTH
REF_FRAME      = TEME
TIME_SYSTEM    = UTC
MEAN_ELEMENT_THEORY = SGP/SGP4

EPOCH          = 2025-10-27T07:09:02.831616
MEAN_MOTION    = 15.34724369
ECCENTRICITY   = .00057361
INCLINATION    = 51.8803
RA_OF_ASC_NODE = 244.2810
ARG_OF_PERICENTER = 179.5997
MEAN_ANOMALY   = 180.4994

EPHEMERIS_TYPE = 0
CLASSIFICATION_TYPE = U
NORAD_CAT_ID   = 65969
ELEMENT_SET_NO = 999
REV_AT_EPOCH   = 328
BSTAR          = .77793093E-3
MEAN_MOTION_DOT = .26305E-3
MEAN_MOTION_DDOT = 0

CCSDS_OMM_VERS = 2.0
CREATION_DATE  = 
ORIGINATOR     = 

OBJECT_NAME    = KUIPER-00157
OBJECT_ID      = 2025-228Z
CENTER_NAME    = EARTH
REF_FRAME      = TEME
TIME_SYSTEM    = UTC
MEAN_ELEMENT_THEORY = SGP/SGP4

EPOCH          = 2025-10-27T07:15:17.700480
MEAN_MOTION    = 15.34278716
ECCENTRICITY   = .00058301
INCLINATION    = 51.8811
RA_OF_ASC_NODE = 244.3134
ARG_OF_PERICENTER = 197.4616
MEAN_ANOMALY   = 162.6170

EPHEMERIS_TYPE = 0
CLASSIFICATION_TYPE = U
NORAD_CAT_ID   = 65970
ELEMENT_SET_NO = 999
REV_AT_EPOCH   = 328
BSTAR          = .83710673E-3
MEAN_MOTION_DOT = .2794E-3
MEAN_MOTION_DDOT = 0

CCSDS_OMM_VERS = 2.0
CREATION_DATE  = 
ORIGINATOR     = 

OBJECT_NAME    = STRIX-5
OBJECT_ID      = 2025-229A
CENTER_NAME    = EARTH
REF_FRAME      = TEME
TIME_SYSTEM    = UTC
MEAN_ELEMENT_THEORY = SGP/SGP4

EPOCH          = 2025-10-24T06:59:29.825088
MEAN_MOTION    = 15.01617556
ECCENTRICITY   = .0040776
INCLINATION    = 41.9260
RA_OF_ASC_NODE = 152.9598
ARG_OF_PERICENTER = 308.0764
MEAN_ANOMALY   = 51.6386

EPHEMERIS_TYPE = 0
CLASSIFICATION_TYPE = U
NORAD_CAT_ID   = 65971
ELEMENT_SET_NO = 999
REV_AT_EPOCH   = 147
BSTAR          = .55984E-3
MEAN_MOTION_DOT = .7332E-4
MEAN_MOTION_DDOT = 0

CCSDS_OMM_VERS = 2.0
CREATION_DATE  = 
ORIGINATOR     = 

OBJECT_NAME    = ELECTRON R/B
OBJECT_ID      = 2025-229B
CENTER_NAME    = EARTH
REF_FRAME      = TEME
TIME_SYSTEM    = UTC
MEAN_ELEMENT_THEORY = SGP/SGP4

EPOCH          = 2025-10-27T06:49:36.317568
MEAN_MOTION    = 15.01648921
ECCENTRICITY   = .00403191
INCLINATION    = 41.9266
RA_OF_ASC_NODE = 136.4339
ARG_OF_PERICENTER = 327.1867
MEAN_ANOMALY   = 32.6456

EPHEMERIS_TYPE = 0
CLASSIFICATION_TYPE = U
NORAD_CAT_ID   = 65972
ELEMENT_SET_NO = 999
REV_AT_EPOCH   = 190
BSTAR          = .39866402E-3
MEAN_MOTION_DOT = .5165E-4
MEAN_MOTION_DDOT = 0

