KUIPER-00135            
1 65961U 25228Q   25300.30179674  .00026302  00000+0  78954-3 0  9991
2 65961  51.8814 244.3110 0004968 184.9970 175.0966 15.34255560  3289
KUIPER-00136            
1 65962U 25228R   25300.29823090  .00030016  00000+0  88652-3 0  9991
2 65962  51.8804 244.2873 0005655 181.0558 179.0417 15.34694108  3288
KUIPER-00137            
1 65963U 25228S   25300.23627714  .00030010  00000+0  89614-3 0  9994
2 65963  51.8813 244.6219 0005218 193.6974 166.3871 15.34349352  3273
KUIPER-00138            
1 65964U 25228T   25300.23773401  .00018683  00000+0  56664-3 0  9991
2 65964  51.8801 244.6258 0005820 205.1932 154.8770 15.34139829  3272
KUIPER-00140            
1 65965U 25228U   25300.30357228  .00029183  00000+0  87825-3 0  9995
2 65965  51.8807 244.3193 0005398 206.1096 153.9618 15.34117071  3283
KUIPER-00141            
1 65966U 25228V   25300.23473496  .00027222  00000+0  80986-3 0  9997
2 65966  51.8802 244.6053 0005658 184.8965 175.1966 15.34516838  3278
KUIPER-00146            
1 65967U 25228W   25300.23503223  .00028674  00000+0  85321-3 0  9990
2 65967  51.8812 244.6140 0005644 186.6253 173.4659 15.34483598  3278
KUIPER-00149            
1 65968U 25228X   25300.23342925  .00026220  00000+0  77709-3 0  9997
2 65968  51.8804 244.5982 0005579 182.8780 177.2175 15.34657982  3278
KUIPER-00154            
1 65969U 25228Y   25300.29794944  .00026305  00000+0  77793-3 0  9993
2 65969  51.8803 244.2810 0005736 179.5997 180.4994 15.34724369  3283
KUIPER-00157            
1 65970U 25228Z   25300.30228820  .00027940  00000+0  83711-3 0  9995
2 65970  51.8811 244.3134 0005830 197.4616 162.6170 15.34278716  3284
STRIX-5                 
1 65971U 25229A   25297.29131742  .00007332  00000+0  55984-3 0  9990
2 65971  41.9260 152.9598 0040776 308.0764  51.6386 15.01617556  1471
ELECTRON R/B            
1 65972U 25229B   25300.28444812  .00005165  00000+0  39866-3 0  9993
2 65972  41.9266 136.4339 0040319 327.1867  32.6456 15.01648921  1902
